start=new Date('2021-09-02T00:00:00.000Z').valueOf();
sats=[{"MEAN_ELEMENT_THEORY":"SGP4","COUNTRY_CODE":"US","GP_ID":"183928253","BSTAR":"-0.00063090000000","LAUNCH_DATE":"2021-05-09","FILE":"3107096","REF_FRAME":"TEME","MEAN_MOTION_DOT":"-0.00088503","PERIAPSIS":"347.367","MEAN_ANOMALY":"178.7936","RA_OF_ASC_NODE":"8.3035","DECAY_DATE":null,"EPHEMERIS_TYPE":"0","NORAD_CAT_ID":"48431","OBJECT_ID":"2021-040D","RCS_SIZE":"LARGE","TLE_LINE2":"2 48431  53.0483   8.3035 0003316  12.0298 178.7936 15.73257010  3688","ARG_OF_PERICENTER":"12.0298","CLASSIFICATION_TYPE":"U","INCLINATION":"53.0483","TIME_SYSTEM":"UTC","TLE_LINE1":"1 48431U 21040D   21244.91668981 -.00088503  00000-0 -63090-3 0  9995","MEAN_MOTION":"15.73257010","MEAN_MOTION_DDOT":"0.0000000000000","OBJECT_NAME":"STARLINK-2700","SITE":"AFETR","CENTER_NAME":"EARTH","REV_AT_EPOCH":"368","ELEMENT_SET_NO":"999","ECCENTRICITY":"0.00033160","EPOCH":"2021-09-01T22:00:01.999584","OBJECT_TYPE":"PAYLOAD","PERIOD":"91.530","APOAPSIS":"351.829","SEMIMAJOR_AXIS":"6727.733"},{"DECAY_DATE":null,"EPHEMERIS_TYPE":"0","NORAD_CAT_ID":"48432","OBJECT_ID":"2021-040E","PERIAPSIS":"347.498","RA_OF_ASC_NODE":"8.3039","MEAN_ANOMALY":"179.2745","LAUNCH_DATE":"2021-05-09","MEAN_MOTION_DOT":"-0.00021971","FILE":"3107096","REF_FRAME":"TEME","MEAN_ELEMENT_THEORY":"SGP4","COUNTRY_CODE":"US","BSTAR":"-0.00015238000000","GP_ID":"183928529","APOAPSIS":"351.980","SEMIMAJOR_AXIS":"6727.874","ECCENTRICITY":"0.00033310","EPOCH":"2021-09-01T22:00:01.999584","PERIOD":"91.533","OBJECT_TYPE":"PAYLOAD","MEAN_MOTION":"15.73207386","CENTER_NAME":"EARTH","SITE":"AFETR","ELEMENT_SET_NO":"999","REV_AT_EPOCH":"366","MEAN_MOTION_DDOT":"0.0000000000000","OBJECT_NAME":"STARLINK-2680","RCS_SIZE":"LARGE","CLASSIFICATION_TYPE":"U","INCLINATION":"53.0486","TLE_LINE1":"1 48432U 21040E   21244.91668981 -.00021971  00000-0 -15238-3 0  9993","TIME_SYSTEM":"UTC","TLE_LINE2":"2 48432  53.0486   8.3039 0003331  12.2071 179.2745 15.73207386  3667","ARG_OF_PERICENTER":"12.2071"},{"OBJECT_ID":"2021-040F","NORAD_CAT_ID":"48433","EPHEMERIS_TYPE":"0","DECAY_DATE":null,"RA_OF_ASC_NODE":"8.3019","MEAN_ANOMALY":"182.8939","PERIAPSIS":"347.427","MEAN_MOTION_DOT":"-0.00070171","REF_FRAME":"TEME","FILE":"3107096","LAUNCH_DATE":"2021-05-09","BSTAR":"-0.00049890000000","GP_ID":"183928660","COUNTRY_CODE":"US","MEAN_ELEMENT_THEORY":"SGP4","SEMIMAJOR_AXIS":"6727.824","APOAPSIS":"351.952","PERIOD":"91.532","OBJECT_TYPE":"PAYLOAD","EPOCH":"2021-09-01T22:00:01.999584","ECCENTRICITY":"0.00033630","ELEMENT_SET_NO":"999","REV_AT_EPOCH":"368","SITE":"AFETR","CENTER_NAME":"EARTH","OBJECT_NAME":"STARLINK-2699","MEAN_MOTION_DDOT":"0.0000000000000","MEAN_MOTION":"15.73224801","TIME_SYSTEM":"UTC","TLE_LINE1":"1 48433U 21040F   21244.91668981 -.00070171  00000-0 -49890-3 0  9991","INCLINATION":"53.0485","CLASSIFICATION_TYPE":"U","ARG_OF_PERICENTER":"9.2348","TLE_LINE2":"2 48433  53.0485   8.3019 0003363   9.2348 182.8939 15.73224801  3681","RCS_SIZE":"LARGE"},{"PERIAPSIS":"384.010","MEAN_ANOMALY":"357.1283","RA_OF_ASC_NODE":"8.6044","DECAY_DATE":null,"EPHEMERIS_TYPE":"0","NORAD_CAT_ID":"48434","OBJECT_ID":"2021-040G","MEAN_ELEMENT_THEORY":"SGP4","COUNTRY_CODE":"US","GP_ID":"183928753","BSTAR":"-0.01078400000000","LAUNCH_DATE":"2021-05-09","FILE":"3107096","REF_FRAME":"TEME","MEAN_MOTION_DOT":"-0.00843510","ECCENTRICITY":"0.00013660","EPOCH":"2021-09-01T22:00:01.999584","OBJECT_TYPE":"PAYLOAD","PERIOD":"92.252","APOAPSIS":"385.857","SEMIMAJOR_AXIS":"6763.068","RCS_SIZE":"LARGE","TLE_LINE2":"2 48434  53.0488   8.6044 0001366  50.0890 357.1283 15.60943151  3662","ARG_OF_PERICENTER":"50.0890","CLASSIFICATION_TYPE":"U","INCLINATION":"53.0488","TIME_SYSTEM":"UTC","TLE_LINE1":"1 48434U 21040G   21244.91668981 -.00843510  00000-0 -10784-1 0  9995","MEAN_MOTION":"15.60943151","MEAN_MOTION_DDOT":"0.0000000000000","OBJECT_NAME":"STARLINK-2692","SITE":"AFETR","CENTER_NAME":"EARTH","ELEMENT_SET_NO":"999","REV_AT_EPOCH":"366"},{"RCS_SIZE":"LARGE","INCLINATION":"53.0455","CLASSIFICATION_TYPE":"U","TIME_SYSTEM":"UTC","TLE_LINE1":"1 48435U 21040H   21244.91668981 -.01069947  00000-0 -42361-1 0  9997","TLE_LINE2":"2 48435  53.0455  11.3258 0001146  75.8290 324.3483 15.27859565  3666","ARG_OF_PERICENTER":"75.8290","MEAN_MOTION":"15.27859565","CENTER_NAME":"EARTH","SITE":"AFETR","ELEMENT_SET_NO":"999","REV_AT_EPOCH":"366","MEAN_MOTION_DDOT":"0.0000000000000","OBJECT_NAME":"STARLINK-2633","ECCENTRICITY":"0.00011460","EPOCH":"2021-09-01T22:00:01.999584","PERIOD":"94.249","OBJECT_TYPE":"PAYLOAD","APOAPSIS":"483.000","SEMIMAJOR_AXIS":"6860.349","MEAN_ELEMENT_THEORY":"SGP4","COUNTRY_CODE":"US","BSTAR":"-0.04236100000000","GP_ID":"183928570","LAUNCH_DATE":"2021-05-09","MEAN_MOTION_DOT":"-0.01069947","FILE":"3107096","REF_FRAME":"TEME","PERIAPSIS":"481.428","RA_OF_ASC_NODE":"11.3258","MEAN_ANOMALY":"324.3483","DECAY_DATE":null,"EPHEMERIS_TYPE":"0","NORAD_CAT_ID":"48435","OBJECT_ID":"2021-040H"},{"EPOCH":"2021-09-01T22:00:01.999584","ECCENTRICITY":"0.00011250","PERIOD":"95.593","OBJECT_TYPE":"PAYLOAD","APOAPSIS":"548.010","SEMIMAJOR_AXIS":"6925.366","RCS_SIZE":"LARGE","ARG_OF_PERICENTER":"102.4499","TLE_LINE2":"2 48436  53.0538  27.7351 0001125 102.4499 292.2569 15.06394297  3581","TIME_SYSTEM":"UTC","TLE_LINE1":"1 48436U 21040J   21244.91668981  .00016770  00000-0  11422-2 0  9996","CLASSIFICATION_TYPE":"U","INCLINATION":"53.0538","MEAN_MOTION":"15.06394297","OBJECT_NAME":"STARLINK-2639","MEAN_MOTION_DDOT":"0.0000000000000","REV_AT_EPOCH":"358","ELEMENT_SET_NO":"999","SITE":"AFETR","CENTER_NAME":"EARTH","PERIAPSIS":"546.452","MEAN_ANOMALY":"292.2569","RA_OF_ASC_NODE":"27.7351","EPHEMERIS_TYPE":"0","DECAY_DATE":null,"OBJECT_ID":"2021-040J","NORAD_CAT_ID":"48436","COUNTRY_CODE":"US","MEAN_ELEMENT_THEORY":"SGP4","GP_ID":"183928846","BSTAR":"0.00114220000000","LAUNCH_DATE":"2021-05-09","REF_FRAME":"TEME","FILE":"3107096","MEAN_MOTION_DOT":"0.00016770"},{"EPOCH":"2021-09-01T22:00:01.999584","ECCENTRICITY":"0.00016640","PERIOD":"95.696","OBJECT_TYPE":"PAYLOAD","APOAPSIS":"553.404","SEMIMAJOR_AXIS":"6930.386","RCS_SIZE":"LARGE","TLE_LINE1":"1 48437U 21040K   21244.91668981  .00029689  00000-0  20938-2 0  9992","TIME_SYSTEM":"UTC","INCLINATION":"53.0543","CLASSIFICATION_TYPE":"U","ARG_OF_PERICENTER":"124.1678","TLE_LINE2":"2 48437  53.0543  37.0539 0001664 124.1678 133.6303 15.04758002  3577","MEAN_MOTION":"15.04758002","ELEMENT_SET_NO":"999","REV_AT_EPOCH":"357","SITE":"AFETR","CENTER_NAME":"EARTH","OBJECT_NAME":"STARLINK-2642","MEAN_MOTION_DDOT":"0.0000000000000","PERIAPSIS":"551.097","RA_OF_ASC_NODE":"37.0539","MEAN_ANOMALY":"133.6303","EPHEMERIS_TYPE":"0","DECAY_DATE":null,"OBJECT_ID":"2021-040K","NORAD_CAT_ID":"48437","COUNTRY_CODE":"US","MEAN_ELEMENT_THEORY":"SGP4","BSTAR":"0.00209380000000","GP_ID":"183928344","LAUNCH_DATE":"2021-05-09","MEAN_MOTION_DOT":"0.00029689","REF_FRAME":"TEME","FILE":"3107096"},{"TLE_LINE2":"2 48438  53.0547  27.7379 0000995 114.3211 300.3330 15.06387861  3587","ARG_OF_PERICENTER":"114.3211","CLASSIFICATION_TYPE":"U","INCLINATION":"53.0547","TLE_LINE1":"1 48438U 21040L   21244.91668981  .00017786  00000-0  12103-2 0  9993","TIME_SYSTEM":"UTC","RCS_SIZE":"LARGE","MEAN_MOTION_DDOT":"0.0000000000000","OBJECT_NAME":"STARLINK-2640","SITE":"AFETR","CENTER_NAME":"EARTH","ELEMENT_SET_NO":"999","REV_AT_EPOCH":"358","MEAN_MOTION":"15.06387861","OBJECT_TYPE":"PAYLOAD","PERIOD":"95.593","ECCENTRICITY":"0.00009950","EPOCH":"2021-09-01T22:00:01.999584","SEMIMAJOR_AXIS":"6925.386","APOAPSIS":"547.940","GP_ID":"183928437","BSTAR":"0.00121030000000","MEAN_ELEMENT_THEORY":"SGP4","COUNTRY_CODE":"US","FILE":"3107096","REF_FRAME":"TEME","MEAN_MOTION_DOT":"0.00017786","LAUNCH_DATE":"2021-05-09","MEAN_ANOMALY":"300.3330","RA_OF_ASC_NODE":"27.7379","PERIAPSIS":"546.562","NORAD_CAT_ID":"48438","OBJECT_ID":"2021-040L","DECAY_DATE":null,"EPHEMERIS_TYPE":"0"},{"SEMIMAJOR_AXIS":"6925.419","APOAPSIS":"548.180","OBJECT_TYPE":"PAYLOAD","PERIOD":"95.594","EPOCH":"2021-09-01T22:00:01.999584","ECCENTRICITY":"0.00012930","OBJECT_NAME":"STARLINK-2583","MEAN_MOTION_DDOT":"0.0000000000000","REV_AT_EPOCH":"358","ELEMENT_SET_NO":"999","SITE":"AFETR","CENTER_NAME":"EARTH","MEAN_MOTION":"15.06376886","ARG_OF_PERICENTER":"104.2536","TLE_LINE2":"2 48439  53.0563  27.7331 0001293 104.2536 330.4830 15.06376886  3588","TLE_LINE1":"1 48439U 21040M   21244.91668981  .00019073  00000-0  12967-2 0  9993","TIME_SYSTEM":"UTC","CLASSIFICATION_TYPE":"U","INCLINATION":"53.0563","RCS_SIZE":"LARGE","OBJECT_ID":"2021-040M","NORAD_CAT_ID":"48439","EPHEMERIS_TYPE":"0","DECAY_DATE":null,"MEAN_ANOMALY":"330.4830","RA_OF_ASC_NODE":"27.7331","PERIAPSIS":"546.389","REF_FRAME":"TEME","FILE":"3107096","MEAN_MOTION_DOT":"0.00019073","LAUNCH_DATE":"2021-05-09","GP_ID":"183928254","BSTAR":"0.00129670000000","COUNTRY_CODE":"US","MEAN_ELEMENT_THEORY":"SGP4"},{"RA_OF_ASC_NODE":"27.7232","MEAN_ANOMALY":"354.8668","PERIAPSIS":"546.333","NORAD_CAT_ID":"48440","OBJECT_ID":"2021-040N","DECAY_DATE":null,"EPHEMERIS_TYPE":"0","BSTAR":"0.00133880000000","GP_ID":"183928530","MEAN_ELEMENT_THEORY":"SGP4","COUNTRY_CODE":"US","MEAN_MOTION_DOT":"0.00019703","FILE":"3107096","REF_FRAME":"TEME","LAUNCH_DATE":"2021-05-09","OBJECT_TYPE":"PAYLOAD","PERIOD":"95.594","ECCENTRICITY":"0.00013800","EPOCH":"2021-09-01T22:00:01.999584","SEMIMAJOR_AXIS":"6925.424","APOAPSIS":"548.245","CLASSIFICATION_TYPE":"U","INCLINATION":"53.0544","TLE_LINE1":"1 48440U 21040N   21244.91668981  .00019703  00000-0  13388-2 0  9993","TIME_SYSTEM":"UTC","TLE_LINE2":"2 48440  53.0544  27.7232 0001380  99.8815 354.8668 15.06375452  3560","ARG_OF_PERICENTER":"99.8815","RCS_SIZE":"LARGE","SITE":"AFETR","CENTER_NAME":"EARTH","ELEMENT_SET_NO":"999","REV_AT_EPOCH":"356","MEAN_MOTION_DDOT":"0.0000000000000","OBJECT_NAME":"STARLINK-2682","MEAN_MOTION":"15.06375452"}];
